IRIDIUM 171             
1 43929U 19002H   26024.50795087  .00000469  00000+0  16053-3 0  9990
2 43929  86.3939  53.9174 0002159  86.2934 273.8509 14.34217335368368
IRIDIUM 170             
1 43930U 19002J   26024.48142165  .00001471  00000+0  22940-3 0  9998
2 43930  86.6053  53.6297 0002346  87.9476 272.2010 14.72257116378117
IRIDIUM 167             
1 43931U 19002K   26024.50160258  .00000243  00000+0  79719-4 0  9998
2 43931  86.3927  53.6505 0002350  82.3191 277.8272 14.34220347368366
IRIDIUM 181             
1 56726U 23068S   26024.66394111  .00000645  00000+0  18559-3 0  9995
2 56726  86.4520 116.8035 0001773 101.0538 259.0862 14.43307767141733
IRIDIUM 177             
1 56727U 23068T   26024.46634820  .00001264  00000+0  16288-3 0  9993
2 56727  86.1942  37.0272 0002405  87.7645 272.3852 14.80223130145102
IRIDIUM 174             
1 56728U 23068U   26024.53702205  .00000891  00000+0  13739-3 0  9998
2 56728  86.6059  53.7394 0002318  91.3672 268.7810 14.72263641144880
IRIDIUM 178             
1 56729U 23068V   26024.59065123  .00002121  00000+0  27564-3 0  9995
2 56729  86.6511  85.3927 0002242  83.0041 277.1435 14.80236432145123
IRIDIUM 179             
1 56730U 23068W   26024.65288261  .00001863  00000+0  24172-3 0  9998
2 56730  86.6757  93.9228 0002255  86.5652 273.5828 14.80233472145134
